{
  "type": "FeatureCollection",
  "features": [
    {
      "type": "Feature",
      "properties": {
        "norad_id": 43262,
        "name": "GAOFEN-1 04",
        "group": "resource",
        "lat": 11.74593884073109,
        "lon": 56.92436901473074,
        "alt_km": 641.7421075120301,
        "timestamp": "2025-12-26T18:39:31.929957+00:00",
        "meta_object_name": "GAOFEN-1 04",
        "meta_object_id": "2018-031D",
        "meta_epoch": "2025-12-26T15:21:08.079840",
        "meta_mean_motion": 14.76434157,
        "meta_eccentricity": 4.897e-05,
        "meta_inclination": 98.0784,
        "meta_ra_of_asc_node": 58.4789,
        "meta_arg_of_pericenter": 63.0256,
        "meta_mean_anomaly": 297.1003,
        "meta_ephemeris_type": 0,
        "meta_classification_type": "U",
        "meta_norad_cat_id": 43262,
        "meta_element_set_no": 999,
        "meta_rev_at_epoch": 41722,
        "meta_bstar": 0.00013983181,
        "meta_mean_motion_dot": 9.21e-06,
        "meta_mean_motion_ddot": 0,
        "tle_line1": "1 43262U 18031D   25360.63967685  .00000921  00000+0  13983-3 0  9994",
        "tle_line2": "2 43262  98.0784  58.4789 0000489  63.0256 297.1003 14.76434157417229"
      },
      "geometry": {
        "type": "Point",
        "coordinates": [
          56.92436901473074,
          11.74593884073109
        ]
      }
    },
    {
      "type": "Feature",
      "properties": {
        "norad_id": 43437,
        "name": "SENTINEL-3B",
        "group": "resource",
        "lat": -10.910988759728482,
        "lon": -115.91627512860137,
        "alt_km": 807.1437396554884,
        "timestamp": "2025-12-26T18:39:31.929972+00:00",
        "meta_object_name": "SENTINEL-3B",
        "meta_object_id": "2018-039A",
        "meta_epoch": "2025-12-26T14:24:02.704320",
        "meta_mean_motion": 14.26739349,
        "meta_eccentricity": 0.00015746,
        "meta_inclination": 98.6249,
        "meta_ra_of_asc_node": 65.5855,
        "meta_arg_of_pericenter": 88.1106,
        "meta_mean_anomaly": 272.0255,
        "meta_ephemeris_type": 0,
        "meta_classification_type": "U",
        "meta_norad_cat_id": 43437,
        "meta_element_set_no": 999,
        "meta_rev_at_epoch": 39951,
        "meta_bstar": 7.7966348e-05,
        "meta_mean_motion_dot": 1.45e-06,
        "meta_mean_motion_ddot": 0,
        "tle_line1": "1 43437U 18039A   25360.60003130  .00000145  00000+0  77966-4 0  9999",
        "tle_line2": "2 43437  98.6249  65.5855 0001574  88.1106 272.0255 14.26739349399514"
      },
      "geometry": {
        "type": "Point",
        "coordinates": [
          -115.91627512860137,
          -10.910988759728482
        ]
      }
    },
    {
      "type": "Feature",
      "properties": {
        "norad_id": 43461,
        "name": "GAOFEN-5 01",
        "group": "resource",
        "lat": 76.57497621430956,
        "lon": -74.44516885025442,
        "alt_km": 684.9121554457761,
        "timestamp": "2025-12-26T18:39:31.929982+00:00",
        "meta_object_name": "GAOFEN-5 01",
        "meta_object_id": "2018-043A",
        "meta_epoch": "2025-12-26T15:00:26.684640",
        "meta_mean_motion": 14.60424553,
        "meta_eccentricity": 5.866e-05,
        "meta_inclination": 98.4347,
        "meta_ra_of_asc_node": 323.8365,
        "meta_arg_of_pericenter": 227.6847,
        "meta_mean_anomaly": 132.4303,
        "meta_ephemeris_type": 0,
        "meta_classification_type": "U",
        "meta_norad_cat_id": 43461,
        "meta_element_set_no": 999,
        "meta_rev_at_epoch": 40650,
        "meta_bstar": 0.00011541264,
        "meta_mean_motion_dot": 5.1e-06,
        "meta_mean_motion_ddot": 0,
        "tle_line1": "1 43461U 18043A   25360.62530885  .00000510  00000+0  11541-3 0  9997",
        "tle_line2": "2 43461  98.4347 323.8365 0000586 227.6847 132.4303 14.60424553406505"
      },
      "geometry": {
        "type": "Point",
        "coordinates": [
          -74.44516885025442,
          76.57497621430956
        ]
      }
    },
    {
      "type": "Feature",
      "properties": {
        "norad_id": 43484,
        "name": "GAOFEN-6",
        "group": "resource",
        "lat": 9.87454746420889,
        "lon": -114.06091960077485,
        "alt_km": 649.1970542425088,
        "timestamp": "2025-12-26T18:39:31.929992+00:00",
        "meta_object_name": "GAOFEN-6",
        "meta_object_id": "2018-048A",
        "meta_epoch": "2025-12-26T14:38:22.819776",
        "meta_mean_motion": 14.76591406,
        "meta_eccentricity": 0.00124825,
        "meta_inclination": 97.8008,
        "meta_ra_of_asc_node": 64.4099,
        "meta_arg_of_pericenter": 22.1846,
        "meta_mean_anomaly": 337.9902,
        "meta_ephemeris_type": 0,
        "meta_classification_type": "U",
        "meta_norad_cat_id": 43484,
        "meta_element_set_no": 999,
        "meta_rev_at_epoch": 40792,
        "meta_bstar": 0.00017870556,
        "meta_mean_motion_dot": 1.199e-05,
        "meta_mean_motion_ddot": 0,
        "tle_line1": "1 43484U 18048A   25360.60998634  .00001199  00000+0  17871-3 0  9991",
        "tle_line2": "2 43484  97.8008  64.4099 0012482  22.1846 337.9902 14.76591406407927"
      },
      "geometry": {
        "type": "Point",
        "coordinates": [
          -114.06091960077485,
          9.87454746420889
        ]
      }
    },
    {
      "type": "Feature",
      "properties": {
        "norad_id": 43585,
        "name": "GAOFEN-11 01",
        "group": "resource",
        "lat": 50.393788428361134,
        "lon": 54.86552678791806,
        "alt_km": 415.9239445369576,
        "timestamp": "2025-12-26T18:39:31.930003+00:00",
        "meta_object_name": "GAOFEN-11 01",
        "meta_object_id": "2018-063A",
        "meta_epoch": "2025-12-26T15:20:24.312192",
        "meta_mean_motion": 15.49619121,
        "meta_eccentricity": 0.00039522,
        "meta_inclination": 97.1539,
        "meta_ra_of_asc_node": 63.4592,
        "meta_arg_of_pericenter": 241.5377,
        "meta_mean_anomaly": 118.5477,
        "meta_ephemeris_type": 0,
        "meta_classification_type": "U",
        "meta_norad_cat_id": 43585,
        "meta_element_set_no": 999,
        "meta_rev_at_epoch": 41357,
        "meta_bstar": 0.00035132199,
        "meta_mean_motion_dot": 0.00019361,
        "meta_mean_motion_ddot": 0,
        "tle_line1": "1 43585U 18063A   25360.63917028  .00019361  00000+0  35132-3 0  9991",
        "tle_line2": "2 43585  97.1539  63.4592 0003952 241.5377 118.5477 15.49619121413570"
      },
      "geometry": {
        "type": "Point",
        "coordinates": [
          54.86552678791806,
          50.393788428361134
        ]
      }
    },
    {
      "type": "Feature",
      "properties": {
        "norad_id": 43613,
        "name": "ICESAT-2",
        "group": "resource",
        "lat": 23.518811371989962,
        "lon": 65.39864163578646,
        "alt_km": 479.1961514667282,
        "timestamp": "2025-12-26T18:39:31.930015+00:00",
        "meta_object_name": "ICESAT-2",
        "meta_object_id": "2018-070A",
        "meta_epoch": "2025-12-26T14:50:02.998464",
        "meta_mean_motion": 15.28274271,
        "meta_eccentricity": 0.00032114,
        "meta_inclination": 92.0036,
        "meta_ra_of_asc_node": 244.4827,
        "meta_arg_of_pericenter": 108.7105,
        "meta_mean_anomaly": 251.4493,
        "meta_ephemeris_type": 0,
        "meta_classification_type": "U",
        "meta_norad_cat_id": 43613,
        "meta_element_set_no": 999,
        "meta_rev_at_epoch": 40610,
        "meta_bstar": 0.00047667048,
        "meta_mean_motion_dot": 0.00013131,
        "meta_mean_motion_ddot": 0,
        "tle_line1": "1 43613U 18070A   25360.61809026  .00013131  00000+0  47667-3 0  9992",
        "tle_line2": "2 43613  92.0036 244.4827 0003211 108.7105 251.4493 15.28274271406107"
      },
      "geometry": {
        "type": "Point",
        "coordinates": [
          65.39864163578646,
          23.518811371989962
        ]
      }
    },
    {
      "type": "Feature",
      "properties": {
        "norad_id": 43719,
        "name": "HYSIS",
        "group": "resource",
        "lat": -48.80177760464085,
        "lon": 72.93924716808392,
        "alt_km": 640.4779572365042,
        "timestamp": "2025-12-26T18:39:31.930025+00:00",
        "meta_object_name": "HYSIS",
        "meta_object_id": "2018-096A",
        "meta_epoch": "2025-12-26T15:38:02.433120",
        "meta_mean_motion": 14.78682033,
        "meta_eccentricity": 7.734e-05,
        "meta_inclination": 98.0075,
        "meta_ra_of_asc_node": 63.56,
        "meta_arg_of_pericenter": 53.7106,
        "meta_mean_anomaly": 306.4176,
        "meta_ephemeris_type": 0,
        "meta_classification_type": "U",
        "meta_norad_cat_id": 43719,
        "meta_element_set_no": 999,
        "meta_rev_at_epoch": 38192,
        "meta_bstar": 0.0001733335,
        "meta_mean_motion_dot": 1.219e-05,
        "meta_mean_motion_ddot": 0,
        "tle_line1": "1 43719U 18096A   25360.65141705  .00001219  00000+0  17333-3 0  9995",
        "tle_line2": "2 43719  98.0075  63.5600 0000773  53.7106 306.4176 14.78682033381926"
      },
      "geometry": {
        "type": "Point",
        "coordinates": [
          72.93924716808392,
          -48.80177760464085
        ]
      }
    }
  ]
}